STARLINK-30702          
1 57955U 23148W   24189.80513241  .00003026  00000+0  12184-3 0  9996
2 57955  53.1719 327.9217 0001272  80.2420 279.8724 15.28031698 45087
STARLINK-30396          
1 57964U 23151A   24189.36195769 -.00000717  00000+0 -37980-4 0  9990
2 57964  43.0049  55.2193 0001302 271.5160  88.5533 15.02538633 43911
STARLINK-30524          
1 57965U 23151B   24189.33310371  .00000313  00000+0  38271-4 0  9990
2 57965  43.0043  55.0104 0001320 265.4465  94.6226 15.02529555 43927
STARLINK-30521          
1 57966U 23151C   24190.00565057  .00006360  00000+0  48556-3 0  9994
2 57966  43.0052  51.4507 0001144 283.8125  76.2590 15.02530365 43950
STARLINK-30528          
1 57967U 23151D   24189.33753884  .00000384  00000+0  43530-4 0  9994
2 57967  43.0057  55.0337 0001108 273.4194  86.6522 15.02534144 43924
STARLINK-30495          
1 57968U 23151E   24189.83285381  .00000147  00000+0  25944-4 0  9998
2 57968  43.0043  52.7258 0000902 274.0161  86.0578 15.02532393 43938
STARLINK-30484          
1 57969U 23151F   24189.33421600 -.00002869  00000+0 -19739-3 0  9999
2 57969  43.0044  55.0104 0001373 265.9014  94.1672 15.02536884 43928
STARLINK-30494          
1 57970U 23151G   24189.31101617  .00002546  00000+0  20345-3 0  9997
2 57970  43.0045  55.6784 0001222 264.2559  95.8144 15.02537745 43918
STARLINK-30498          
1 57971U 23151H   24189.83839777  .00000922  00000+0  83301-4 0  9998
2 57971  43.0051  52.7533 0001231 263.6303  96.4399 15.02535710 43870
STARLINK-30505          
1 57972U 23151J   24189.92151950  .00001159  00000+0  10087-3 0  9992
2 57972  43.0040  52.5112 0001250 282.1048  77.9654 15.02543122 43989
STARLINK-30502          
1 57973U 23151K   24189.32767254 -.00001346  00000+0 -84589-4 0  9996
2 57973  43.0053  55.8028 0001054 269.0941  90.9780 15.02528781 43916
STARLINK-30489          
1 57974U 23151L   24189.33643072 -.00000594  00000+0 -28913-4 0  9992
2 57974  43.0046  55.0183 0001322 266.9540  93.1151 15.02534052 43928
STARLINK-30503          
1 57975U 23151M   24189.91708723  .00000908  00000+0  82278-4 0  9993
2 57975  43.0045  52.4646 0001273 276.7155  83.3542 15.02527841 43999
STARLINK-30512          
1 57976U 23151N   24189.35418080  .00000261  00000+0  34417-4 0  9990
2 57976  43.0038  55.0847 0001236 276.7807  83.2895 15.02535402 43922
STARLINK-30509          
1 57977U 23151P   24190.00657816 -.00000574  00000+0 -27385-4 0  9992
2 57977  43.0044  65.0264 0001311 261.6966  98.3728 15.02537211 43794
STARLINK-30511          
1 57978U 23151Q   24190.06639289  .00002064  00000+0  16779-3 0  9991
2 57978  43.0047  64.6142 0001244 276.8533  83.2168 15.02537452 43856
STARLINK-30508          
1 57979U 23151R   24190.06306526 -.00000188  00000+0  11926-5 0  9994
2 57979  43.0021  64.5888 0001475 268.9009  91.1665 15.02535894 43815
STARLINK-30504          
1 57980U 23151S   24189.72438520  .00016611  00000+0  11400-2 0  9998
2 57980  43.0057  62.9689 0003360 237.1297 122.9223 15.05746287 43859
STARLINK-30510          
1 57981U 23151T   24189.66086739  .00000378  00000+0  43044-4 0  9997
2 57981  43.0036  66.7318 0001379 261.4862  98.5824 15.02537395 43753
STARLINK-30507          
1 57982U 23151U   24189.39162951  .00000072  00000+0  20389-4 0  9997
2 57982  43.0053  68.1518 0001026 266.0804  93.9921 15.02534191 43777
STARLINK-30515          
1 57983U 23151V   24189.38829647 -.00000873  00000+0 -49562-4 0  9994
2 57983  43.0051  68.1256 0001259 268.1120  91.9578 15.02542676 43770
STARLINK-30516          
1 57984U 23151W   24189.05258098 -.00000061  00000+0  10560-4 0  9999
2 57984  43.0048  69.9072 0001278 277.0300  83.0397 15.02534507 43722
STARLINK-30519          
1 57985U 23151X   24189.38163385  .00001042  00000+0  92227-4 0  9999
2 57985  43.0046  68.0768 0001375 270.7528  89.3157 15.02536944 43712
STARLINK-30537          
1 57991U 23153A   24189.23374438  .00000712  00000+0  67782-4 0  9996
2 57991  43.0030 146.1687 0001048 268.6980  91.3742 15.02531676 42949
