OBJECT_NAME,OBJECT_ID,EPOCH,MEAN_MOTION,ECCENTRICITY,INCLINATION,RA_OF_ASC_NODE,ARG_OF_PERICENTER,MEAN_ANOMALY,EPHEMERIS_TYPE,CLASSIFICATION_TYPE,NORAD_CAT_ID,ELEMENT_SET_NO,REV_AT_EPOCH,BSTAR,MEAN_MOTION_DOT,MEAN_MOTION_DDOT
STARLINK-30702,2023-148W,2024-07-07T19:19:23.440224,15.28031698,.0001272,53.1719,327.9217,80.2420,279.8724,0,U,57955,999,4508,.12184E-3,.3026E-4,0
STARLINK-30396,2023-151A,2024-07-07T08:41:13.144416,15.02538633,.0001302,43.0049,55.2193,271.5160,88.5533,0,U,57964,999,4391,-.3798E-4,-.717E-5,0
STARLINK-30524,2023-151B,2024-07-07T07:59:40.160544,15.02529555,.000132,43.0043,55.0104,265.4465,94.6226,0,U,57965,999,4392,.38271E-4,.313E-5,0
STARLINK-30521,2023-151C,2024-07-08T00:08:08.209248,15.02530365,.0001144,43.0052,51.4507,283.8125,76.2590,0,U,57966,999,4395,.48556E-3,.636E-4,0
STARLINK-30528,2023-151D,2024-07-07T08:06:03.355776,15.02534144,.0001108,43.0057,55.0337,273.4194,86.6522,0,U,57967,999,4392,.4353E-4,.384E-5,0
STARLINK-30495,2023-151E,2024-07-07T19:59:18.569184,15.02532393,.0000902,43.0043,52.7258,274.0161,86.0578,0,U,57968,999,4393,.25944E-4,.147E-5,0
STARLINK-30484,2023-151F,2024-07-07T08:01:16.262400,15.02536884,.0001373,43.0044,55.0104,265.9014,94.1672,0,U,57969,999,4392,-.19739E-3,-.2869E-4,0
STARLINK-30494,2023-151G,2024-07-07T07:27:51.797088,15.02537745,.0001222,43.0045,55.6784,264.2559,95.8144,0,U,57970,999,4391,.20345E-3,.2546E-4,0
STARLINK-30498,2023-151H,2024-07-07T20:07:17.567328,15.02535710,.0001231,43.0051,52.7533,263.6303,96.4399,0,U,57971,999,4387,.83301E-4,.922E-5,0
STARLINK-30505,2023-151J,2024-07-07T22:06:59.284800,15.02543122,.000125,43.0040,52.5112,282.1048,77.9654,0,U,57972,999,4398,.10087E-3,.1159E-4,0
STARLINK-30502,2023-151K,2024-07-07T07:51:50.907456,15.02528781,.0001054,43.0053,55.8028,269.0941,90.9780,0,U,57973,999,4391,-.84589E-4,-.1346E-4,0
STARLINK-30489,2023-151L,2024-07-07T08:04:27.614208,15.02534052,.0001322,43.0046,55.0183,266.9540,93.1151,0,U,57974,999,4392,-.28913E-4,-.594E-5,0
STARLINK-30503,2023-151M,2024-07-07T22:00:36.336672,15.02527841,.0001273,43.0045,52.4646,276.7155,83.3542,0,U,57975,999,4399,.82278E-4,.908E-5,0
STARLINK-30512,2023-151N,2024-07-07T08:30:01.221120,15.02535402,.0001236,43.0038,55.0847,276.7807,83.2895,0,U,57976,999,4392,.34417E-4,.261E-5,0
STARLINK-30509,2023-151P,2024-07-08T00:09:28.353024,15.02537211,.0001311,43.0044,65.0264,261.6966,98.3728,0,U,57977,999,4379,-.27385E-4,-.574E-5,0
STARLINK-30511,2023-151Q,2024-07-08T01:35:36.345696,15.02537452,.0001244,43.0047,64.6142,276.8533,83.2168,0,U,57978,999,4385,.16779E-3,.2064E-4,0
STARLINK-30508,2023-151R,2024-07-08T01:30:48.838464,15.02535894,.0001475,43.0021,64.5888,268.9009,91.1665,0,U,57979,999,4381,.11926E-5,-.188E-5,0
STARLINK-30504,2023-151S,2024-07-07T17:23:06.881280,15.05746287,.000336,43.0057,62.9689,237.1297,122.9223,0,U,57980,999,4385,.114E-2,.16611E-3,0
STARLINK-30510,2023-151T,2024-07-07T15:51:38.942496,15.02537395,.0001379,43.0036,66.7318,261.4862,98.5824,0,U,57981,999,4375,.43044E-4,.378E-5,0
STARLINK-30507,2023-151U,2024-07-07T09:23:56.789664,15.02534191,.0001026,43.0053,68.1518,266.0804,93.9921,0,U,57982,999,4377,.20389E-4,.72E-6,0
STARLINK-30515,2023-151V,2024-07-07T09:19:08.815008,15.02542676,.0001259,43.0051,68.1256,268.1120,91.9578,0,U,57983,999,4377,-.49562E-4,-.873E-5,0
STARLINK-30516,2023-151W,2024-07-07T01:15:42.996672,15.02534507,.0001278,43.0048,69.9072,277.0300,83.0397,0,U,57984,999,4372,.1056E-4,-.61E-6,0
STARLINK-30519,2023-151X,2024-07-07T09:09:33.164640,15.02536944,.0001375,43.0046,68.0768,270.7528,89.3157,0,U,57985,999,4371,.92227E-4,.1042E-4,0
STARLINK-30537,2023-153A,2024-07-07T05:36:35.514432,15.02531676,.0001048,43.0030,146.1687,268.6980,91.3742,0,U,57991,999,4294,.67782E-4,.712E-5,0
